ONEWEB-0162             
1 48056U 21025Q   26198.60091759  .00000034  00000+0  58975-4 0  9990
2 48056  87.8982 314.1723 0001878  95.3033 264.8311 13.13469998257535
ONEWEB-0155             
1 48057U 21025R   26198.60782067  .00000217  00000+0  55990-3 0  9996
2 48057  87.8983 314.1675 0002022  97.2895 262.8464 13.13474227257675
ONEWEB-0149             
1 48058U 21025S   26197.86805328  .00000172  00000+0  43672-3 0  9994
2 48058  87.8987 314.3185 0001851  93.2553 266.8788 13.13469344257389
ONEWEB-0148             
1 48059U 21025T   26198.59258238 -.00000083  00000+0 -26196-3 0  9993
2 48059  87.8979 314.1797 0001889  82.5495 277.5849 13.13470046257608
ONEWEB-0160             
1 48060U 21025U   26198.30479907  .00000310  00000+0  81510-3 0  9994
2 48060  87.8978 314.2330 0001465 118.8697 241.2579 13.13469956257516
ONEWEB-0163             
1 48061U 21025V   26198.59427589 -.00000134  00000+0 -40141-3 0  9996
2 48061  87.8986 314.1722 0002224  96.9348 263.2034 13.13469965257670
ONEWEB-0159             
1 48062U 21025W   26198.58580837 -.00000267  00000+0 -76660-3 0  9994
2 48062  87.8986 314.1678 0002207  98.3249 261.8131 13.13470115257590
ONEWEB-0164             
1 48063U 21025X   26198.26247588 -.00000097  00000+0 -29994-3 0  9992
2 48063  87.8990 314.2382 0001919 102.0313 258.1031 13.13469552257538
ONEWEB-0167             
1 48064U 21025Y   26198.29041808 -.00000001  00000+0 -37644-4 0  9990
2 48064  87.8978 314.2400 0002582 106.7054 253.4358 13.13470767257525
ONEWEB-0166             
1 48065U 21025Z   26198.31326993  .00000396  00000+0  10505-2 0  9995
2 48065  87.8988 314.2099 0001954  98.2505 261.8846 13.13470089257600
ONEWEB-0151             
1 48066U 21025AA  26197.85788846  .00000306  00000+0  80221-3 0  9997
2 48066  87.8987 314.3150 0002059 103.2945 256.8414 13.13469694257482
ONEWEB-0170             
1 48067U 21025AB  26198.55195034  .00000298  00000+0  78009-3 0  9998
2 48067  87.8986 314.1793 0001905 116.5744 243.5581 13.13469487257530
ONEWEB-0168             
1 48068U 21025AC  26198.61289692  .00000413  00000+0  10963-2 0  9993
2 48068  87.8988 314.1684 0002021 100.2107 259.9250 13.13470388257553
ONEWEB-0173             
1 48069U 21025AD  26198.29972339  .00000238  00000+0  61794-3 0  9999
2 48069  87.8980 314.2305 0002337  99.3976 260.7417 13.13470365257751
ONEWEB-0171             
1 48070U 21025AE  26198.56549319  .00000033  00000+0  56427-4 0  9990
2 48070  87.8981 314.1846 0002033 103.5995 256.5360 13.13469374257607
ONEWEB-0172             
1 48071U 21025AF  26198.62135553  .00000413  00000+0  10958-2 0  9998
2 48071  87.8993 314.1662 0002122 101.7323 258.4044 13.13470990258507
ONEWEB-0174             
1 48072U 21025AG  26198.60274363  .00000133  00000+0  32905-3 0  9996
2 48072  87.8986 314.1684 0001973  95.2145 264.9209 13.13470286257823
ONEWEB-0175             
1 48073U 21025AH  26198.25232108  .00000150  00000+0  37601-3 0  9996
2 48073  87.8989 314.2236 0002108 108.7996 251.3362 13.13469363257437
ONEWEB-0177             
1 48074U 21025AJ  26198.56887869 -.00000086  00000+0 -27066-3 0  9995
2 48074  87.8987 314.1780 0002112  95.2952 264.8418 13.13470119257663
ONEWEB-0178             
1 48075U 21025AK  26198.28292877 -.00000183  00000+0 -53712-3 0  9999
2 48075  87.8976 314.2446 0002209 103.2078 256.9297 13.13471033257672
ONEWEB-0108             
1 48076U 21025AL  26198.62305572  .00000382  00000+0  10120-2 0  9999
2 48076  87.8990 314.1599 0001725  97.8844 262.2481 13.13469631257641
ONEWEB-0169             
1 48077U 21025AM  26198.65521536 -.00000322  00000+0 -91611-3 0  9994
2 48077  87.8986 314.1592 0001953  96.2278 263.9073 13.13469125256302
ONEWEB-0176             
1 48210U 21031A   26198.62610825  .00000020  00000+0  18867-4 0  9993
2 48210  87.8968 283.6347 0002146 101.2276 258.9095 13.14501944252311
ONEWEB-0184             
1 48211U 21031B   26198.67526904  .00000191  00000+0  48105-3 0  9999
2 48211  87.8969 283.6278 0002689 112.1337 248.0078 13.14502888252293
ONEWEB-0179             
1 48212U 21031C   26198.48937698  .00000225  00000+0  66414-4 0  9997
2 48212  87.8990 279.6807 0222005 157.9818 203.1099 14.25549601253369
ONEWEB-0180             
1 48213U 21031D   26198.67844248  .00000127  00000+0  30810-3 0  9998
2 48213  87.8977 283.6236 0002456  97.7597 262.3811 13.14503246252222
ONEWEB-0218             
1 48214U 21031E   26198.62451788  .00000166  00000+0  41398-3 0  9993
2 48214  87.8980 283.6334 0002843 106.0086 254.1357 13.14503664252377
ONEWEB-0209             
1 48215U 21031F   26198.53730853  .00000306  00000+0  79110-3 0  9996
2 48215  87.8969 283.6653 0002241  95.3607 264.7778 13.14503229252360
ONEWEB-0198             
1 48216U 21031G   26198.67382203  .00000110  00000+0  26110-3 0  9999
2 48216  87.8958 283.6349 0002495  98.7555 261.3858 13.14503220252498
ONEWEB-0189             
1 48217U 21031H   26197.77295799  .00000194  00000+0  48999-3 0  9994
2 48217  87.8969 283.8038 0002397 100.3747 259.7653 13.14502566252117
