OBJECT_NAME,OBJECT_ID,EPOCH,MEAN_MOTION,ECCENTRICITY,INCLINATION,RA_OF_ASC_NODE,ARG_OF_PERICENTER,MEAN_ANOMALY,EPHEMERIS_TYPE,CLASSIFICATION_TYPE,NORAD_CAT_ID,ELEMENT_SET_NO,REV_AT_EPOCH,BSTAR,MEAN_MOTION_DOT,MEAN_MOTION_DDOT
ONEWEB-0162,2021-025Q,2026-07-17T14:25:19.279776,13.13469998,.0001878,87.8982,314.1723,95.3033,264.8311,0,U,48056,999,25753,.58975E-4,.34E-6,0
ONEWEB-0155,2021-025R,2026-07-17T14:35:15.705888,13.13474227,.0002022,87.8983,314.1675,97.2895,262.8464,0,U,48057,999,25767,.5599E-3,.217E-5,0
ONEWEB-0149,2021-025S,2026-07-16T20:49:59.803392,13.13469344,.00018513,87.8987,314.3185,93.2553,266.8788,0,U,48058,999,25738,.43672226E-3,.172E-5,0
ONEWEB-0148,2021-025T,2026-07-17T14:13:19.117632,13.13470046,.0001889,87.8979,314.1797,82.5495,277.5849,0,U,48059,999,25760,-.26196E-3,-.83E-6,0
ONEWEB-0160,2021-025U,2026-07-17T07:18:54.639648,13.13469956,.0001465,87.8978,314.2330,118.8697,241.2579,0,U,48060,999,25751,.8151E-3,.31E-5,0
ONEWEB-0163,2021-025V,2026-07-17T14:15:45.436896,13.13469965,.0002224,87.8986,314.1722,96.9348,263.2034,0,U,48061,999,25767,-.40141E-3,-.134E-5,0
ONEWEB-0159,2021-025W,2026-07-17T14:03:33.843168,13.13470115,.0002207,87.8986,314.1678,98.3249,261.8131,0,U,48062,999,25759,-.7666E-3,-.267E-5,0
ONEWEB-0164,2021-025X,2026-07-17T06:17:57.916032,13.13469552,.0001919,87.8990,314.2382,102.0313,258.1031,0,U,48063,999,25753,-.29994E-3,-.97E-6,0
ONEWEB-0167,2021-025Y,2026-07-17T06:58:12.122112,13.13470767,.0002582,87.8978,314.2400,106.7054,253.4358,0,U,48064,999,25752,-.37644E-4,-.1E-7,0
ONEWEB-0166,2021-025Z,2026-07-17T07:31:06.521952,13.13470089,.0001954,87.8988,314.2099,98.2505,261.8846,0,U,48065,999,25760,.10505E-2,.396E-5,0
ONEWEB-0151,2021-025AA,2026-07-16T20:35:21.562944,13.13469694,.00020597,87.8987,314.3150,103.2945,256.8414,0,U,48066,999,25748,.80220971E-3,.306E-5,0
ONEWEB-0170,2021-025AB,2026-07-17T13:14:48.509376,13.13469487,.0001905,87.8986,314.1793,116.5744,243.5581,0,U,48067,999,25753,.78009E-3,.298E-5,0
ONEWEB-0168,2021-025AC,2026-07-17T14:42:34.293888,13.13470388,.0002021,87.8988,314.1684,100.2107,259.9250,0,U,48068,999,25755,.10963E-2,.413E-5,0
ONEWEB-0173,2021-025AD,2026-07-17T07:11:36.100896,13.13470365,.0002337,87.8980,314.2305,99.3976,260.7417,0,U,48069,999,25775,.61794E-3,.238E-5,0
ONEWEB-0171,2021-025AE,2026-07-17T13:34:18.611616,13.13469374,.0002033,87.8981,314.1846,103.5995,256.5360,0,U,48070,999,25760,.56427E-4,.33E-6,0
ONEWEB-0172,2021-025AF,2026-07-17T14:54:45.117792,13.13470990,.0002122,87.8993,314.1662,101.7323,258.4044,0,U,48071,999,25850,.10958E-2,.413E-5,0
ONEWEB-0174,2021-025AG,2026-07-17T14:27:57.049632,13.13470286,.0001973,87.8986,314.1684,95.2145,264.9209,0,U,48072,999,25782,.32905E-3,.133E-5,0
ONEWEB-0175,2021-025AH,2026-07-17T06:03:20.541312,13.13469363,.0002108,87.8989,314.2236,108.7996,251.3362,0,U,48073,999,25743,.37601E-3,.15E-5,0
ONEWEB-0177,2021-025AJ,2026-07-17T13:39:11.118816,13.13470119,.0002112,87.8987,314.1780,95.2952,264.8418,0,U,48074,999,25766,-.27066E-3,-.86E-6,0
ONEWEB-0178,2021-025AK,2026-07-17T06:47:25.045728,13.13471033,.0002209,87.8976,314.2446,103.2078,256.9297,0,U,48075,999,25767,-.53712E-3,-.183E-5,0
ONEWEB-0108,2021-025AL,2026-07-17T14:57:12.014208,13.13469631,.0001725,87.8990,314.1599,97.8844,262.2481,0,U,48076,999,25764,.1012E-2,.382E-5,0
ONEWEB-0169,2021-025AM,2026-07-17T15:43:30.607104,13.13469125,.0001953,87.8986,314.1592,96.2278,263.9073,0,U,48077,999,25630,-.91611E-3,-.322E-5,0
ONEWEB-0176,2021-031A,2026-07-17T15:01:35.752800,13.14501944,.0002146,87.8968,283.6347,101.2276,258.9095,0,U,48210,999,25231,.18867E-4,.2E-6,0
ONEWEB-0184,2021-031B,2026-07-17T16:12:23.245056,13.14502888,.0002689,87.8969,283.6278,112.1337,248.0078,0,U,48211,999,25229,.48105E-3,.191E-5,0
ONEWEB-0179,2021-031C,2026-07-17T11:44:42.171072,14.25549601,.0222005,87.8990,279.6807,157.9818,203.1099,0,U,48212,999,25336,.66414E-4,.225E-5,0
ONEWEB-0180,2021-031D,2026-07-17T16:16:57.430272,13.14503246,.0002456,87.8977,283.6236,97.7597,262.3811,0,U,48213,999,25222,.3081E-3,.127E-5,0
ONEWEB-0218,2021-031E,2026-07-17T14:59:18.344832,13.14503664,.0002843,87.8980,283.6334,106.0086,254.1357,0,U,48214,999,25237,.41398E-3,.166E-5,0
ONEWEB-0209,2021-031F,2026-07-17T12:53:43.456992,13.14503229,.0002241,87.8969,283.6653,95.3607,264.7778,0,U,48215,999,25236,.7911E-3,.306E-5,0
ONEWEB-0198,2021-031G,2026-07-17T16:10:18.223392,13.14503220,.0002495,87.8958,283.6349,98.7555,261.3858,0,U,48216,999,25249,.2611E-3,.11E-5,0
ONEWEB-0189,2021-031H,2026-07-16T18:33:03.570336,13.14502566,.00023976,87.8969,283.8038,100.3747,259.7653,0,U,48217,999,25211,.48998789E-3,.194E-5,0
